{
"type": "FeatureCollection",
"name": "Fly-tipping_incidents_unresolved",
"crs": { "type": "name", "properties": { "name": "urn:ogc:def:crs:OGC:1.3:CRS84" } },
"features": [
{ "type": "Feature", "properties": { "OBJECTID": 103474752, "ReferenceNumber": "250829-000089", "ProductID": "Fly-tipping", "CategoryId": "Other", "Date_Created": "2025-08-29T10:15:52Z", "Ward": "Acomb", "Easting": 456886.64665201999, "Northing": 452238.86624235002 }, "geometry": { "type": "Point", "coordinates": [ -1.134436615085392, 53.963129453932858 ] } },
{ "type": "Feature", "properties": { "OBJECTID": 103474755, "ReferenceNumber": "250829-000088", "ProductID": "Fly-tipping", "CategoryId": "Other", "Date_Created": "2025-08-29T10:13:49Z", "Ward": "Acomb", "Easting": 456873.32214702998, "Northing": 452221.44700664998 }, "geometry": { "type": "Point", "coordinates": [ -1.134642917069509, 53.962974376168376 ] } },
{ "type": "Feature", "properties": { "OBJECTID": 103474922, "ReferenceNumber": "251006-000326", "ProductID": "Fly-tipping", "CategoryId": "Furniture", "Date_Created": "2025-10-06T15:47:39Z", "Ward": "Holgate", "Easting": 458055.33050912002, "Northing": 451644.63565457001 }, "geometry": { "type": "Point", "coordinates": [ -1.116738942540894, 53.957659868313144 ] } },
{ "type": "Feature", "properties": { "OBJECTID": 103474968, "ReferenceNumber": "251014-000164", "ProductID": "Fly-tipping", "CategoryId": "Vehicle parts", "Date_Created": "2025-10-14T12:12:58Z", "Ward": "Westfield", "Easting": 457814.88740190997, "Northing": 450461.10296167998 }, "geometry": { "type": "Point", "coordinates": [ -1.120626034566878, 53.947050834464768 ] } },
{ "type": "Feature", "properties": { "OBJECTID": 103474969, "ReferenceNumber": "251014-000171", "ProductID": "Fly-tipping", "CategoryId": "Furniture", "Date_Created": "2025-10-14T12:19:51Z", "Ward": "Westfield", "Easting": 457960.18555610999, "Northing": 450467.16976224002 }, "geometry": { "type": "Point", "coordinates": [ -1.118411407374544, 53.947089145987803 ] } },
{ "type": "Feature", "properties": { "OBJECTID": 103475016, "ReferenceNumber": "251019-000014", "ProductID": "Fly-tipping", "CategoryId": "Furniture", "Date_Created": "2025-10-19T12:17:16Z", "Ward": "Rural West York", "Easting": 456868.27429772, "Northing": 448778.83219912997 }, "geometry": { "type": "Point", "coordinates": [ -1.13535867702206, 53.932037505895892 ] } },
{ "type": "Feature", "properties": { "OBJECTID": 103475021, "ReferenceNumber": "251020-000044", "ProductID": "Fly-tipping", "CategoryId": "Black Bags", "Date_Created": "2025-10-20T09:20:11Z", "Ward": "Micklegate", "Easting": 460319.40550666, "Northing": 450998.56544824003 }, "geometry": { "type": "Point", "coordinates": [ -1.082366572632447, 53.951595632280295 ] } },
{ "type": "Feature", "properties": { "OBJECTID": 103475027, "ReferenceNumber": "251020-000066", "ProductID": "Fly-tipping", "CategoryId": "Other", "Date_Created": "2025-10-20T10:11:01Z", "Ward": "Acomb", "Easting": 457398.31487375998, "Northing": 451823.98622327001 }, "geometry": { "type": "Point", "coordinates": [ -1.126716771596781, 53.959344731019563 ] } },
{ "type": "Feature", "properties": { "OBJECTID": 103475285, "ReferenceNumber": "250813-000031", "ProductID": "Fly-tipping", "CategoryId": "Black Bags", "Date_Created": "2025-08-13T08:32:10Z", "Ward": "Huntington & New Earswick", "Easting": 461926.79557918001, "Northing": 456332.54937973002 }, "geometry": { "type": "Point", "coordinates": [ -1.056796198112402, 53.999338987508111 ] } },
{ "type": "Feature", "properties": { "OBJECTID": 103475369, "ReferenceNumber": "250905-000229", "ProductID": "Fly-tipping", "CategoryId": "Black Bags", "Date_Created": "2025-09-05T14:43:41Z", "Ward": "Fulford & Heslington", "Easting": 464989.54632883001, "Northing": 448452.46285457001 }, "geometry": { "type": "Point", "coordinates": [ -1.011755636491749, 53.9281517031473 ] } },
{ "type": "Feature", "properties": { "OBJECTID": 103475550, "ReferenceNumber": "251020-000410", "ProductID": "Fly-tipping", "CategoryId": "Other", "Date_Created": "2025-10-20T21:21:28Z", "Ward": "Rural West York", "Easting": 456870.80558553, "Northing": 448778.84317438997 }, "geometry": { "type": "Point", "coordinates": [ -1.135320126632617, 53.932037327502549 ] } },
{ "type": "Feature", "properties": { "OBJECTID": 103475826, "ReferenceNumber": "251021-000030", "ProductID": "Fly-tipping", "CategoryId": "Black Bags", "Date_Created": "2025-10-21T09:07:43Z", "Ward": "Micklegate", "Easting": 459286.18584346003, "Northing": 450640.53063053999 }, "geometry": { "type": "Point", "coordinates": [ -1.098177572731759, 53.948497253482429 ] } },
{ "type": "Feature", "properties": { "OBJECTID": 103476810, "ReferenceNumber": "251021-000144", "ProductID": "Fly-tipping", "CategoryId": "Black Bags", "Date_Created": "2025-10-21T11:02:10Z", "Ward": "Micklegate", "Easting": 459279.92721654999, "Northing": 450649.21713732998 }, "geometry": { "type": "Point", "coordinates": [ -1.098271240025408, 53.948576030003125 ] } }
]
}
